{"type":"FeatureCollection","features":[{"type":"Feature","properties":{"k":"hard"},"geometry":{"type":"Polygon","coordinates":[[[-180,-85],[180,-85],[180,85],[-180,85],[-180,-85]],[[-69.97314,40.66006],[-69.97054,40.71337],[-69.96917,40.7667],[-69.96901,40.82005],[-69.97008,40.87338],[-69.97238,40.9267],[-69.97591,40.97997],[-69.98067,41.03319],[-69.98666,41.08634],[-69.99388,41.1394],[-70.00234,41.19235],[-70.01203,41.24519],[-70.02296,41.29789],[-70.03513,41.35043],[-70.04853,41.40281],[-70.06316,41.45499],[-70.07902,41.50698],[-70.09611,41.55875],[-70.11443,41.61028],[-70.13397,41.66156],[-70.15473,41.71257],[-70.17671,41.7633],[-70.1999,41.81374],[-70.2243,41.86385],[-70.24991,41.91363],[-70.27671,41.96307],[-70.3047,42.01214],[-70.33388,42.06084],[-70.36425,42.10913],[-70.39578,42.15702],[-70.42848,42.20448],[-70.46233,42.25151],[-70.49733,42.29807],[-70.53348,42.34416],[-70.57075,42.38977],[-70.60915,42.43487],[-70.64865,42.47946],[-70.68926,42.52352],[-70.73095,42.56703],[-70.77373,42.60998],[-70.81756,42.65236],[-70.86246,42.69415],[-70.90839,42.73533],[-70.95535,42.7759],[-71.00332,42.81585],[-71.05229,42.85514],[-71.10225,42.89379],[-71.15318,42.93176],[-71.20507,42.96905],[-71.25789,43.00565],[-71.31164,43.04154],[-71.36629,43.07671],[-71.42184,43.11116],[-71.47826,43.14485],[-71.53553,43.1778],[-71.59364,43.20998],[-71.65256,43.24138],[-71.71229,43.272],[-71.7728,43.30182],[-71.83406,43.33083],[-71.89607,43.35903],[-71.9588,43.38639],[-72.02223,43.41293],[-72.08634,43.43861],[-72.1511,43.46344],[-72.2165,43.48741],[-72.28252,43.5105],[-72.34913,43.53272],[-72.4163,43.55404],[-72.48403,43.57448],[-72.55228,43.59401],[-72.62103,43.61263],[-72.69025,43.63033],[-72.75993,43.64712],[-72.83004,43.66298],[-72.90056,43.6779],[-72.97145,43.69189],[-73.04271,43.70493],[-73.11429,43.71703],[-73.18618,43.72817],[-73.25836,43.73836],[-73.33078,43.74759],[-73.40345,43.75585],[-73.47631,43.76315],[-73.54936,43.76949],[-73.62256,43.77485],[-73.6959,43.77924],[-73.76933,43.78265],[-73.84284,43.78509],[-73.91641,43.78656],[-73.99,43.78705],[-74.06359,43.78656],[-74.13716,43.78509],[-74.21067,43.78265],[-74.2841,43.77924],[-74.35744,43.77485],[-74.43064,43.76949],[-74.50369,43.76315],[-74.57655,43.75585],[-74.64922,43.74759],[-74.72164,43.73836],[-74.79382,43.72817],[-74.86571,43.71703],[-74.93729,43.70493],[-75.00855,43.69189],[-75.07944,43.6779],[-75.14996,43.66298],[-75.22007,43.64712],[-75.28975,43.63033],[-75.35897,43.61263],[-75.42772,43.59401],[-75.49597,43.57448],[-75.5637,43.55404],[-75.63087,43.53272],[-75.69748,43.5105],[-75.7635,43.48741],[-75.8289,43.46344],[-75.89366,43.43861],[-75.95777,43.41293],[-76.0212,43.38639],[-76.08393,43.35903],[-76.14594,43.33083],[-76.2072,43.30182],[-76.26771,43.272],[-76.32744,43.24138],[-76.38636,43.20998],[-76.44447,43.1778],[-76.50174,43.14485],[-76.55816,43.11116],[-76.61371,43.07671],[-76.66836,43.04154],[-76.72211,43.00565],[-76.77493,42.96905],[-76.82682,42.93176],[-76.87775,42.89379],[-76.92771,42.85514],[-76.97668,42.81585],[-77.02465,42.7759],[-77.07161,42.73533],[-77.11754,42.69415],[-77.16244,42.65236],[-77.20627,42.60998],[-77.24905,42.56703],[-77.29074,42.52352],[-77.33135,42.47946],[-77.37085,42.43487],[-77.40925,42.38977],[-77.44652,42.34416],[-77.48267,42.29807],[-77.51767,42.25151],[-77.55152,42.20448],[-77.58422,42.15702],[-77.61575,42.10913],[-77.64612,42.06084],[-77.6753,42.01214],[-77.70329,41.96307],[-77.73009,41.91363],[-77.7557,41.86385],[-77.7801,41.81374],[-77.80329,41.7633],[-77.82527,41.71257],[-77.84603,41.66156],[-77.86557,41.61028],[-77.88389,41.55875],[-77.90098,41.50698],[-77.91684,41.45499],[-77.93147,41.40281],[-77.94487,41.35043],[-77.95704,41.29789],[-77.96797,41.24519],[-77.97766,41.19235],[-77.98612,41.1394],[-77.99334,41.08634],[-77.99933,41.03319],[-78.00409,40.97997],[-78.00762,40.9267],[-78.00992,40.87338],[-78.01099,40.82005],[-78.01083,40.7667],[-78.00946,40.71337],[-78.00686,40.66006],[-78.00305,40.6068],[-77.99804,40.55359],[-77.99181,40.50046],[-77.98438,40.44741],[-77.97576,40.39447],[-77.96595,40.34166],[-77.95495,40.28898],[-77.94277,40.23645],[-77.92942,40.18409],[-77.9149,40.13192],[-77.89923,40.07995],[-77.8824,40.02819],[-77.86442,39.97666],[-77.84531,39.92538],[-77.82508,39.87435],[-77.80372,39.8236],[-77.78125,39.77315],[-77.75767,39.72299],[-77.733,39.67316],[-77.70725,39.62366],[-77.68043,39.5745],[-77.65254,39.52571],[-77.62359,39.4773],[-77.59361,39.42927],[-77.56258,39.38165],[-77.53054,39.33445],[-77.49749,39.28768],[-77.46343,39.24135],[-77.42839,39.19548],[-77.39237,39.15008],[-77.35539,39.10517],[-77.31746,39.06075],[-77.27858,39.01684],[-77.23878,38.97345],[-77.19807,38.93059],[-77.15645,38.88828],[-77.11395,38.84653],[-77.07057,38.80534],[-77.02634,38.76474],[-76.98125,38.72473],[-76.93533,38.68532],[-76.8886,38.64653],[-76.84105,38.60836],[-76.79272,38.57083],[-76.74361,38.53394],[-76.69374,38.49771],[-76.64313,38.46215],[-76.59178,38.42726],[-76.53972,38.39306],[-76.48695,38.35955],[-76.4335,38.32675],[-76.37938,38.29466],[-76.32461,38.2633],[-76.2692,38.23266],[-76.21316,38.20277],[-76.15652,38.17362],[-76.09929,38.14523],[-76.04149,38.1176],[-75.98312,38.09074],[-75.92422,38.06466],[-75.86479,38.03937],[-75.80485,38.01487],[-75.74442,37.99116],[-75.68352,37.96827],[-75.62215,37.94618],[-75.56035,37.92491],[-75.49812,37.90447],[-75.43549,37.88485],[-75.37247,37.86607],[-75.30907,37.84813],[-75.24532,37.83103],[-75.18123,37.81478],[-75.11682,37.79939],[-75.05211,37.78485],[-74.98711,37.77117],[-74.92185,37.75836],[-74.85634,37.74642],[-74.79059,37.73535],[-74.72463,37.72515],[-74.65847,37.71583],[-74.59214,37.70739],[-74.52564,37.69983],[-74.459,37.69316],[-74.39223,37.68737],[-74.32536,37.68247],[-74.25839,37.67846],[-74.19136,37.67534],[-74.12427,37.67311],[-74.05714,37.67178],[-73.99,37.67133],[-73.92286,37.67178],[-73.85573,37.67311],[-73.78864,37.67534],[-73.72161,37.67846],[-73.65464,37.68247],[-73.58777,37.68737],[-73.521,37.69316],[-73.45436,37.69983],[-73.38786,37.70739],[-73.32153,37.71583],[-73.25537,37.72515],[-73.18941,37.73535],[-73.12366,37.74642],[-73.05815,37.75836],[-72.99289,37.77117],[-72.92789,37.78485],[-72.86318,37.79939],[-72.79877,37.81478],[-72.73468,37.83103],[-72.67093,37.84813],[-72.60753,37.86607],[-72.54451,37.88485],[-72.48188,37.90447],[-72.41965,37.92491],[-72.35785,37.94618],[-72.29648,37.96827],[-72.23558,37.99116],[-72.17515,38.01487],[-72.11521,38.03937],[-72.05578,38.06466],[-71.99688,38.09074],[-71.93851,38.1176],[-71.88071,38.14523],[-71.82348,38.17362],[-71.76684,38.20277],[-71.7108,38.23266],[-71.65539,38.2633],[-71.60062,38.29466],[-71.5465,38.32675],[-71.49305,38.35955],[-71.44028,38.39306],[-71.38822,38.42726],[-71.33687,38.46215],[-71.28626,38.49771],[-71.23639,38.53394],[-71.18728,38.57083],[-71.13895,38.60836],[-71.0914,38.64653],[-71.04467,38.68532],[-70.99875,38.72473],[-70.95366,38.76474],[-70.90943,38.80534],[-70.86605,38.84653],[-70.82355,38.88828],[-70.78193,38.93059],[-70.74122,38.97345],[-70.70142,39.01684],[-70.66254,39.06075],[-70.62461,39.10517],[-70.58763,39.15008],[-70.55161,39.19548],[-70.51657,39.24135],[-70.48251,39.28768],[-70.44946,39.33445],[-70.41742,39.38165],[-70.38639,39.42927],[-70.35641,39.4773],[-70.32746,39.52571],[-70.29957,39.5745],[-70.27275,39.62366],[-70.247,39.67316],[-70.22233,39.72299],[-70.19875,39.77315],[-70.17628,39.8236],[-70.15492,39.87435],[-70.13469,39.92538],[-70.11558,39.97666],[-70.0976,40.02819],[-70.08077,40.07995],[-70.0651,40.13192],[-70.05058,40.18409],[-70.03723,40.23645],[-70.02505,40.28898],[-70.01405,40.34166],[-70.00424,40.39447],[-69.99562,40.44741],[-69.98819,40.50046],[-69.98196,40.55359],[-69.97695,40.6068],[-69.97314,40.66006]]]}},{"type":"Feature","properties":{"k":"soft"},"geometry":{"type":"Polygon","coordinates":[[[-69.97314,40.66006],[-69.97695,40.6068],[-69.98196,40.55359],[-69.98819,40.50046],[-69.99562,40.44741],[-70.00424,40.39447],[-70.01405,40.34166],[-70.02505,40.28898],[-70.03723,40.23645],[-70.05058,40.18409],[-70.0651,40.13192],[-70.08077,40.07995],[-70.0976,40.02819],[-70.11558,39.97666],[-70.13469,39.92538],[-70.15492,39.87435],[-70.17628,39.8236],[-70.19875,39.77315],[-70.22233,39.72299],[-70.247,39.67316],[-70.27275,39.62366],[-70.29957,39.5745],[-70.32746,39.52571],[-70.35641,39.4773],[-70.38639,39.42927],[-70.41742,39.38165],[-70.44946,39.33445],[-70.48251,39.28768],[-70.51657,39.24135],[-70.55161,39.19548],[-70.58763,39.15008],[-70.62461,39.10517],[-70.66254,39.06075],[-70.70142,39.01684],[-70.74122,38.97345],[-70.78193,38.93059],[-70.82355,38.88828],[-70.86605,38.84653],[-70.90943,38.80534],[-70.95366,38.76474],[-70.99875,38.72473],[-71.04467,38.68532],[-71.0914,38.64653],[-71.13895,38.60836],[-71.18728,38.57083],[-71.23639,38.53394],[-71.28626,38.49771],[-71.33687,38.46215],[-71.38822,38.42726],[-71.44028,38.39306],[-71.49305,38.35955],[-71.5465,38.32675],[-71.60062,38.29466],[-71.65539,38.2633],[-71.7108,38.23266],[-71.76684,38.20277],[-71.82348,38.17362],[-71.88071,38.14523],[-71.93851,38.1176],[-71.99688,38.09074],[-72.05578,38.06466],[-72.11521,38.03937],[-72.17515,38.01487],[-72.23558,37.99116],[-72.29648,37.96827],[-72.35785,37.94618],[-72.41965,37.92491],[-72.48188,37.90447],[-72.54451,37.88485],[-72.60753,37.86607],[-72.67093,37.84813],[-72.73468,37.83103],[-72.79877,37.81478],[-72.86318,37.79939],[-72.92789,37.78485],[-72.99289,37.77117],[-73.05815,37.75836],[-73.12366,37.74642],[-73.18941,37.73535],[-73.25537,37.72515],[-73.32153,37.71583],[-73.38786,37.70739],[-73.45436,37.69983],[-73.521,37.69316],[-73.58777,37.68737],[-73.65464,37.68247],[-73.72161,37.67846],[-73.78864,37.67534],[-73.85573,37.67311],[-73.92286,37.67178],[-73.99,37.67133],[-74.05714,37.67178],[-74.12427,37.67311],[-74.19136,37.67534],[-74.25839,37.67846],[-74.32536,37.68247],[-74.39223,37.68737],[-74.459,37.69316],[-74.52564,37.69983],[-74.59214,37.70739],[-74.65847,37.71583],[-74.72463,37.72515],[-74.79059,37.73535],[-74.85634,37.74642],[-74.92185,37.75836],[-74.98711,37.77117],[-75.05211,37.78485],[-75.11682,37.79939],[-75.18123,37.81478],[-75.24532,37.83103],[-75.30907,37.84813],[-75.37247,37.86607],[-75.43549,37.88485],[-75.49812,37.90447],[-75.56035,37.92491],[-75.62215,37.94618],[-75.68352,37.96827],[-75.74442,37.99116],[-75.80485,38.01487],[-75.86479,38.03937],[-75.92422,38.06466],[-75.98312,38.09074],[-76.04149,38.1176],[-76.09929,38.14523],[-76.15652,38.17362],[-76.21316,38.20277],[-76.2692,38.23266],[-76.32461,38.2633],[-76.37938,38.29466],[-76.4335,38.32675],[-76.48695,38.35955],[-76.53972,38.39306],[-76.59178,38.42726],[-76.64313,38.46215],[-76.69374,38.49771],[-76.74361,38.53394],[-76.79272,38.57083],[-76.84105,38.60836],[-76.8886,38.64653],[-76.93533,38.68532],[-76.98125,38.72473],[-77.02634,38.76474],[-77.07057,38.80534],[-77.11395,38.84653],[-77.15645,38.88828],[-77.19807,38.93059],[-77.23878,38.97345],[-77.27858,39.01684],[-77.31746,39.06075],[-77.35539,39.10517],[-77.39237,39.15008],[-77.42839,39.19548],[-77.46343,39.24135],[-77.49749,39.28768],[-77.53054,39.33445],[-77.56258,39.38165],[-77.59361,39.42927],[-77.62359,39.4773],[-77.65254,39.52571],[-77.68043,39.5745],[-77.70725,39.62366],[-77.733,39.67316],[-77.75767,39.72299],[-77.78125,39.77315],[-77.80372,39.8236],[-77.82508,39.87435],[-77.84531,39.92538],[-77.86442,39.97666],[-77.8824,40.02819],[-77.89923,40.07995],[-77.9149,40.13192],[-77.92942,40.18409],[-77.94277,40.23645],[-77.95495,40.28898],[-77.96595,40.34166],[-77.97576,40.39447],[-77.98438,40.44741],[-77.99181,40.50046],[-77.99804,40.55359],[-78.00305,40.6068],[-78.00686,40.66006],[-78.00946,40.71337],[-78.01083,40.7667],[-78.01099,40.82005],[-78.00992,40.87338],[-78.00762,40.9267],[-78.00409,40.97997],[-77.99933,41.03319],[-77.99334,41.08634],[-77.98612,41.1394],[-77.97766,41.19235],[-77.96797,41.24519],[-77.95704,41.29789],[-77.94487,41.35043],[-77.93147,41.40281],[-77.91684,41.45499],[-77.90098,41.50698],[-77.88389,41.55875],[-77.86557,41.61028],[-77.84603,41.66156],[-77.82527,41.71257],[-77.80329,41.7633],[-77.7801,41.81374],[-77.7557,41.86385],[-77.73009,41.91363],[-77.70329,41.96307],[-77.6753,42.01214],[-77.64612,42.06084],[-77.61575,42.10913],[-77.58422,42.15702],[-77.55152,42.20448],[-77.51767,42.25151],[-77.48267,42.29807],[-77.44652,42.34416],[-77.40925,42.38977],[-77.37085,42.43487],[-77.33135,42.47946],[-77.29074,42.52352],[-77.24905,42.56703],[-77.20627,42.60998],[-77.16244,42.65236],[-77.11754,42.69415],[-77.07161,42.73533],[-77.02465,42.7759],[-76.97668,42.81585],[-76.92771,42.85514],[-76.87775,42.89379],[-76.82682,42.93176],[-76.77493,42.96905],[-76.72211,43.00565],[-76.66836,43.04154],[-76.61371,43.07671],[-76.55816,43.11116],[-76.50174,43.14485],[-76.44447,43.1778],[-76.38636,43.20998],[-76.32744,43.24138],[-76.26771,43.272],[-76.2072,43.30182],[-76.14594,43.33083],[-76.08393,43.35903],[-76.0212,43.38639],[-75.95777,43.41293],[-75.89366,43.43861],[-75.8289,43.46344],[-75.7635,43.48741],[-75.69748,43.5105],[-75.63087,43.53272],[-75.5637,43.55404],[-75.49597,43.57448],[-75.42772,43.59401],[-75.35897,43.61263],[-75.28975,43.63033],[-75.22007,43.64712],[-75.14996,43.66298],[-75.07944,43.6779],[-75.00855,43.69189],[-74.93729,43.70493],[-74.86571,43.71703],[-74.79382,43.72817],[-74.72164,43.73836],[-74.64922,43.74759],[-74.57655,43.75585],[-74.50369,43.76315],[-74.43064,43.76949],[-74.35744,43.77485],[-74.2841,43.77924],[-74.21067,43.78265],[-74.13716,43.78509],[-74.06359,43.78656],[-73.99,43.78705],[-73.91641,43.78656],[-73.84284,43.78509],[-73.76933,43.78265],[-73.6959,43.77924],[-73.62256,43.77485],[-73.54936,43.76949],[-73.47631,43.76315],[-73.40345,43.75585],[-73.33078,43.74759],[-73.25836,43.73836],[-73.18618,43.72817],[-73.11429,43.71703],[-73.04271,43.70493],[-72.97145,43.69189],[-72.90056,43.6779],[-72.83004,43.66298],[-72.75993,43.64712],[-72.69025,43.63033],[-72.62103,43.61263],[-72.55228,43.59401],[-72.48403,43.57448],[-72.4163,43.55404],[-72.34913,43.53272],[-72.28252,43.5105],[-72.2165,43.48741],[-72.1511,43.46344],[-72.08634,43.43861],[-72.02223,43.41293],[-71.9588,43.38639],[-71.89607,43.35903],[-71.83406,43.33083],[-71.7728,43.30182],[-71.71229,43.272],[-71.65256,43.24138],[-71.59364,43.20998],[-71.53553,43.1778],[-71.47826,43.14485],[-71.42184,43.11116],[-71.36629,43.07671],[-71.31164,43.04154],[-71.25789,43.00565],[-71.20507,42.96905],[-71.15318,42.93176],[-71.10225,42.89379],[-71.05229,42.85514],[-71.00332,42.81585],[-70.95535,42.7759],[-70.90839,42.73533],[-70.86246,42.69415],[-70.81756,42.65236],[-70.77373,42.60998],[-70.73095,42.56703],[-70.68926,42.52352],[-70.64865,42.47946],[-70.60915,42.43487],[-70.57075,42.38977],[-70.53348,42.34416],[-70.49733,42.29807],[-70.46233,42.25151],[-70.42848,42.20448],[-70.39578,42.15702],[-70.36425,42.10913],[-70.33388,42.06084],[-70.3047,42.01214],[-70.27671,41.96307],[-70.24991,41.91363],[-70.2243,41.86385],[-70.1999,41.81374],[-70.17671,41.7633],[-70.15473,41.71257],[-70.13397,41.66156],[-70.11443,41.61028],[-70.09611,41.55875],[-70.07902,41.50698],[-70.06316,41.45499],[-70.04853,41.40281],[-70.03513,41.35043],[-70.02296,41.29789],[-70.01203,41.24519],[-70.00234,41.19235],[-69.99388,41.1394],[-69.98666,41.08634],[-69.98067,41.03319],[-69.97591,40.97997],[-69.97238,40.9267],[-69.97008,40.87338],[-69.96901,40.82005],[-69.96917,40.7667],[-69.97054,40.71337],[-69.97314,40.66006]],[[-70.04918,40.66269],[-70.0467,40.71499],[-70.04541,40.76731],[-70.04532,40.81964],[-70.04643,40.87197],[-70.04874,40.92427],[-70.05226,40.97654],[-70.05699,41.02874],[-70.06293,41.08088],[-70.07007,41.13293],[-70.07843,41.18488],[-70.088,41.23671],[-70.09878,41.2884],[-70.11077,41.33994],[-70.12397,41.39131],[-70.13838,41.4425],[-70.154,41.4935],[-70.17082,41.54427],[-70.18885,41.59482],[-70.20807,41.64511],[-70.22849,41.69515],[-70.25011,41.7449],[-70.27291,41.79437],[-70.2969,41.84352],[-70.32206,41.89234],[-70.3484,41.94082],[-70.37591,41.98895],[-70.40458,42.0367],[-70.43441,42.08407],[-70.46538,42.13103],[-70.4975,42.17758],[-70.53075,42.22369],[-70.56512,42.26935],[-70.60061,42.31455],[-70.63721,42.35927],[-70.67491,42.4035],[-70.71369,42.44722],[-70.75355,42.49042],[-70.79448,42.53309],[-70.83646,42.5752],[-70.87948,42.61675],[-70.92354,42.65773],[-70.96862,42.69811],[-71.0147,42.73789],[-71.06177,42.77705],[-71.10982,42.81558],[-71.15884,42.85347],[-71.2088,42.8907],[-71.2597,42.92726],[-71.31152,42.96314],[-71.36425,42.99833],[-71.41786,43.03281],[-71.47234,43.06657],[-71.52767,43.09961],[-71.58385,43.13191],[-71.64084,43.16345],[-71.69863,43.19424],[-71.7572,43.22425],[-71.81653,43.25349],[-71.87661,43.28193],[-71.93742,43.30956],[-71.99892,43.33639],[-72.06112,43.3624],[-72.12397,43.38758],[-72.18747,43.41192],[-72.2516,43.43541],[-72.31632,43.45805],[-72.38162,43.47982],[-72.44748,43.50073],[-72.51387,43.52075],[-72.58078,43.5399],[-72.64817,43.55815],[-72.71603,43.57551],[-72.78434,43.59196],[-72.85306,43.6075],[-72.92218,43.62213],[-72.99168,43.63584],[-73.06152,43.64862],[-73.13168,43.66048],[-73.20215,43.6714],[-73.27289,43.68139],[-73.34389,43.69043],[-73.4151,43.69853],[-73.48652,43.70569],[-73.55812,43.7119],[-73.62987,43.71715],[-73.70174,43.72145],[-73.77372,43.7248],[-73.84577,43.72719],[-73.91787,43.72863],[-73.99,43.72911],[-74.06213,43.72863],[-74.13423,43.72719],[-74.20628,43.7248],[-74.27826,43.72145],[-74.35013,43.71715],[-74.42188,43.7119],[-74.49348,43.70569],[-74.5649,43.69853],[-74.63611,43.69043],[-74.70711,43.68139],[-74.77785,43.6714],[-74.84832,43.66048],[-74.91848,43.64862],[-74.98832,43.63584],[-75.05782,43.62213],[-75.12694,43.6075],[-75.19566,43.59196],[-75.26397,43.57551],[-75.33183,43.55815],[-75.39922,43.5399],[-75.46613,43.52075],[-75.53252,43.50073],[-75.59838,43.47982],[-75.66368,43.45805],[-75.7284,43.43541],[-75.79253,43.41192],[-75.85603,43.38758],[-75.91888,43.3624],[-75.98108,43.33639],[-76.04258,43.30956],[-76.10339,43.28193],[-76.16347,43.25349],[-76.2228,43.22425],[-76.28137,43.19424],[-76.33916,43.16345],[-76.39615,43.13191],[-76.45233,43.09961],[-76.50766,43.06657],[-76.56214,43.03281],[-76.61575,42.99833],[-76.66848,42.96314],[-76.7203,42.92726],[-76.7712,42.8907],[-76.82116,42.85347],[-76.87018,42.81558],[-76.91823,42.77705],[-76.9653,42.73789],[-77.01138,42.69811],[-77.05646,42.65773],[-77.10052,42.61675],[-77.14354,42.5752],[-77.18552,42.53309],[-77.22645,42.49042],[-77.26631,42.44722],[-77.30509,42.4035],[-77.34279,42.35927],[-77.37939,42.31455],[-77.41488,42.26935],[-77.44925,42.22369],[-77.4825,42.17758],[-77.51462,42.13103],[-77.54559,42.08407],[-77.57542,42.0367],[-77.60409,41.98895],[-77.6316,41.94082],[-77.65794,41.89234],[-77.6831,41.84352],[-77.70709,41.79437],[-77.72989,41.7449],[-77.75151,41.69515],[-77.77193,41.64511],[-77.79115,41.59482],[-77.80918,41.54427],[-77.826,41.4935],[-77.84162,41.4425],[-77.85603,41.39131],[-77.86923,41.33994],[-77.88122,41.2884],[-77.892,41.23671],[-77.90157,41.18488],[-77.90993,41.13293],[-77.91707,41.08088],[-77.92301,41.02874],[-77.92774,40.97654],[-77.93126,40.92427],[-77.93357,40.87197],[-77.93468,40.81964],[-77.93459,40.76731],[-77.9333,40.71499],[-77.93082,40.66269],[-77.92714,40.61043],[-77.92227,40.55823],[-77.91623,40.50609],[-77.909,40.45405],[-77.9006,40.40211],[-77.89102,40.35029],[-77.88029,40.2986],[-77.8684,40.24706],[-77.85535,40.19569],[-77.84116,40.14449],[-77.82584,40.09349],[-77.80938,40.0427],[-77.79179,39.99214],[-77.77309,39.94182],[-77.75329,39.89175],[-77.73238,39.84195],[-77.71038,39.79243],[-77.68729,39.74321],[-77.66314,39.69431],[-77.63791,39.64573],[-77.61164,39.59749],[-77.58431,39.54961],[-77.55595,39.50209],[-77.52657,39.45496],[-77.49617,39.40823],[-77.46476,39.3619],[-77.43236,39.316],[-77.39898,39.27053],[-77.36463,39.22551],[-77.32932,39.18095],[-77.29306,39.13687],[-77.25587,39.09327],[-77.21775,39.05017],[-77.17872,39.00758],[-77.13879,38.96552],[-77.09798,38.92399],[-77.0563,38.88301],[-77.01375,38.84258],[-76.97036,38.80273],[-76.92613,38.76345],[-76.88109,38.72477],[-76.83524,38.68669],[-76.7886,38.64923],[-76.74118,38.61238],[-76.693,38.57617],[-76.64407,38.54061],[-76.59441,38.5057],[-76.54403,38.47145],[-76.49294,38.43788],[-76.44117,38.40499],[-76.38872,38.37279],[-76.33561,38.34129],[-76.28185,38.31049],[-76.22747,38.28042],[-76.17248,38.25107],[-76.11689,38.22246],[-76.06072,38.19459],[-76.00399,38.16746],[-75.9467,38.1411],[-75.88888,38.11549],[-75.83055,38.09066],[-75.77172,38.06661],[-75.7124,38.04334],[-75.65262,38.02086],[-75.59238,37.99917],[-75.53172,37.97829],[-75.47063,37.95822],[-75.40915,37.93896],[-75.34728,37.92053],[-75.28504,37.90291],[-75.22246,37.88612],[-75.15954,37.87017],[-75.09631,37.85506],[-75.03278,37.84078],[-74.96897,37.82735],[-74.9049,37.81478],[-74.84058,37.80305],[-74.77603,37.79218],[-74.71127,37.78217],[-74.64632,37.77302],[-74.58119,37.76473],[-74.5159,37.75731],[-74.45047,37.75076],[-74.38492,37.74508],[-74.31926,37.74027],[-74.25351,37.73633],[-74.1877,37.73327],[-74.12183,37.73108],[-74.05592,37.72977],[-73.99,37.72933],[-73.92408,37.72977],[-73.85817,37.73108],[-73.7923,37.73327],[-73.72649,37.73633],[-73.66074,37.74027],[-73.59508,37.74508],[-73.52953,37.75076],[-73.4641,37.75731],[-73.39881,37.76473],[-73.33368,37.77302],[-73.26873,37.78217],[-73.20397,37.79218],[-73.13942,37.80305],[-73.0751,37.81478],[-73.01103,37.82735],[-72.94722,37.84078],[-72.88369,37.85506],[-72.82046,37.87017],[-72.75754,37.88612],[-72.69496,37.90291],[-72.63272,37.92053],[-72.57085,37.93896],[-72.50937,37.95822],[-72.44828,37.97829],[-72.38762,37.99917],[-72.32738,38.02086],[-72.2676,38.04334],[-72.20828,38.06661],[-72.14945,38.09066],[-72.09112,38.11549],[-72.0333,38.1411],[-71.97601,38.16746],[-71.91928,38.19459],[-71.86311,38.22246],[-71.80752,38.25107],[-71.75253,38.28042],[-71.69815,38.31049],[-71.64439,38.34129],[-71.59128,38.37279],[-71.53883,38.40499],[-71.48706,38.43788],[-71.43597,38.47145],[-71.38559,38.5057],[-71.33593,38.54061],[-71.287,38.57617],[-71.23882,38.61238],[-71.1914,38.64923],[-71.14476,38.68669],[-71.09891,38.72477],[-71.05387,38.76345],[-71.00964,38.80273],[-70.96625,38.84258],[-70.9237,38.88301],[-70.88202,38.92399],[-70.84121,38.96552],[-70.80128,39.00758],[-70.76225,39.05017],[-70.72413,39.09327],[-70.68694,39.13687],[-70.65068,39.18095],[-70.61537,39.22551],[-70.58102,39.27053],[-70.54764,39.316],[-70.51524,39.3619],[-70.48383,39.40823],[-70.45343,39.45496],[-70.42405,39.50209],[-70.39569,39.54961],[-70.36836,39.59749],[-70.34209,39.64573],[-70.31686,39.69431],[-70.29271,39.74321],[-70.26962,39.79243],[-70.24762,39.84195],[-70.22671,39.89175],[-70.20691,39.94182],[-70.18821,39.99214],[-70.17062,40.0427],[-70.15416,40.09349],[-70.13884,40.14449],[-70.12465,40.19569],[-70.1116,40.24706],[-70.09971,40.2986],[-70.08898,40.35029],[-70.0794,40.40211],[-70.071,40.45405],[-70.06377,40.50609],[-70.05773,40.55823],[-70.05286,40.61043],[-70.04918,40.66269]]]}},{"type":"Feature","properties":{"k":"edge"},"geometry":{"type":"LineString","coordinates":[[-70.18228,40.66716],[-70.18573,40.61666],[-70.19033,40.56622],[-70.19608,40.51584],[-70.20296,40.46555],[-70.21099,40.41535],[-70.22014,40.36527],[-70.23042,40.31532],[-70.24182,40.26551],[-70.25433,40.21586],[-70.26795,40.16638],[-70.28267,40.11708],[-70.29849,40.06799],[-70.31539,40.01912],[-70.33338,39.97048],[-70.35243,39.92208],[-70.37256,39.87394],[-70.39374,39.82607],[-70.41597,39.7785],[-70.43924,39.73122],[-70.46354,39.68426],[-70.48886,39.63762],[-70.5152,39.59133],[-70.54254,39.54539],[-70.57087,39.49983],[-70.60019,39.45464],[-70.63048,39.40985],[-70.66173,39.36547],[-70.69393,39.3215],[-70.72708,39.27797],[-70.76116,39.23489],[-70.79615,39.19226],[-70.83205,39.1501],[-70.86885,39.10843],[-70.90653,39.06724],[-70.94508,39.02657],[-70.98449,38.98641],[-71.02475,38.94677],[-71.06584,38.90768],[-71.10775,38.86914],[-71.15047,38.83116],[-71.19398,38.79375],[-71.23827,38.75692],[-71.28334,38.72068],[-71.32915,38.68505],[-71.37571,38.65003],[-71.42299,38.61563],[-71.47099,38.58186],[-71.51968,38.54874],[-71.56906,38.51627],[-71.6191,38.48445],[-71.6698,38.4533],[-71.72114,38.42283],[-71.7731,38.39305],[-71.82568,38.36396],[-71.87885,38.33557],[-71.93259,38.30789],[-71.9869,38.28093],[-72.04176,38.25469],[-72.09716,38.22919],[-72.15306,38.20442],[-72.20948,38.1804],[-72.26637,38.15713],[-72.32374,38.13462],[-72.38156,38.11287],[-72.43982,38.09189],[-72.49849,38.07169],[-72.55758,38.05227],[-72.61705,38.03364],[-72.67689,38.01581],[-72.73709,37.99876],[-72.79763,37.98252],[-72.8585,37.96709],[-72.91966,37.95247],[-72.98112,37.93866],[-73.04285,37.92567],[-73.10484,37.9135],[-73.16706,37.90215],[-73.22951,37.89164],[-73.29216,37.88195],[-73.355,37.8731],[-73.41801,37.86508],[-73.48118,37.8579],[-73.54448,37.85156],[-73.6079,37.84607],[-73.67143,37.84141],[-73.73504,37.8376],[-73.79872,37.83464],[-73.86245,37.83252],[-73.92622,37.83125],[-73.99,37.83083],[-74.05378,37.83125],[-74.11755,37.83252],[-74.18128,37.83464],[-74.24496,37.8376],[-74.30857,37.84141],[-74.3721,37.84607],[-74.43552,37.85156],[-74.49882,37.8579],[-74.56199,37.86508],[-74.625,37.8731],[-74.68784,37.88195],[-74.75049,37.89164],[-74.81294,37.90215],[-74.87516,37.9135],[-74.93715,37.92567],[-74.99888,37.93866],[-75.06034,37.95247],[-75.1215,37.96709],[-75.18237,37.98252],[-75.24291,37.99876],[-75.30311,38.01581],[-75.36295,38.03364],[-75.42242,38.05227],[-75.48151,38.07169],[-75.54018,38.09189],[-75.59844,38.11287],[-75.65626,38.13462],[-75.71363,38.15713],[-75.77052,38.1804],[-75.82694,38.20442],[-75.88284,38.22919],[-75.93824,38.25469],[-75.9931,38.28093],[-76.04741,38.30789],[-76.10115,38.33557],[-76.15432,38.36396],[-76.2069,38.39305],[-76.25886,38.42283],[-76.3102,38.4533],[-76.3609,38.48445],[-76.41094,38.51627],[-76.46032,38.54874],[-76.50901,38.58186],[-76.55701,38.61563],[-76.60429,38.65003],[-76.65085,38.68505],[-76.69666,38.72068],[-76.74173,38.75692],[-76.78602,38.79375],[-76.82953,38.83116],[-76.87225,38.86914],[-76.91416,38.90768],[-76.95525,38.94677],[-76.99551,38.98641],[-77.03492,39.02657],[-77.07347,39.06724],[-77.11115,39.10843],[-77.14795,39.1501],[-77.18385,39.19226],[-77.21884,39.23489],[-77.25292,39.27797],[-77.28607,39.3215],[-77.31827,39.36547],[-77.34952,39.40985],[-77.37981,39.45464],[-77.40913,39.49983],[-77.43746,39.54539],[-77.4648,39.59133],[-77.49114,39.63762],[-77.51646,39.68426],[-77.54076,39.73122],[-77.56403,39.7785],[-77.58626,39.82607],[-77.60744,39.87394],[-77.62757,39.92208],[-77.64662,39.97048],[-77.66461,40.01912],[-77.68151,40.06799],[-77.69733,40.11708],[-77.71205,40.16638],[-77.72567,40.21586],[-77.73818,40.26551],[-77.74958,40.31532],[-77.75986,40.36527],[-77.76901,40.41535],[-77.77704,40.46555],[-77.78392,40.51584],[-77.78967,40.56622],[-77.79427,40.61666],[-77.79772,40.66716],[-77.80002,40.7177],[-77.80117,40.76825],[-77.80116,40.81882],[-77.79998,40.86937],[-77.79764,40.91991],[-77.79414,40.9704],[-77.78947,41.02084],[-77.78363,41.07121],[-77.77663,41.12149],[-77.76845,41.17168],[-77.75911,41.22174],[-77.74859,41.27168],[-77.73691,41.32146],[-77.72406,41.37109],[-77.71004,41.42053],[-77.69485,41.46978],[-77.67851,41.51882],[-77.661,41.56764],[-77.64234,41.61622],[-77.62252,41.66454],[-77.60155,41.71259],[-77.57943,41.76036],[-77.55618,41.80782],[-77.53178,41.85497],[-77.50625,41.90179],[-77.4796,41.94826],[-77.45183,41.99437],[-77.42294,42.04011],[-77.39295,42.08545],[-77.36185,42.13039],[-77.32967,42.17491],[-77.2964,42.21899],[-77.26205,42.26263],[-77.22664,42.30581],[-77.19017,42.3485],[-77.15265,42.39071],[-77.1141,42.43241],[-77.07452,42.4736],[-77.03392,42.51425],[-76.99232,42.55436],[-76.94973,42.59391],[-76.90616,42.63289],[-76.86162,42.67128],[-76.81612,42.70908],[-76.76968,42.74627],[-76.72232,42.78284],[-76.67404,42.81877],[-76.62486,42.85405],[-76.5748,42.88868],[-76.52387,42.92264],[-76.47208,42.95591],[-76.41946,42.9885],[-76.36602,43.02038],[-76.31177,43.05154],[-76.25674,43.08198],[-76.20094,43.11169],[-76.14438,43.14065],[-76.0871,43.16886],[-76.02909,43.1963],[-75.97039,43.22297],[-75.91102,43.24885],[-75.85099,43.27394],[-75.79031,43.29824],[-75.72903,43.32172],[-75.66714,43.34438],[-75.60468,43.36622],[-75.54166,43.38723],[-75.4781,43.4074],[-75.41403,43.42672],[-75.34947,43.44519],[-75.28444,43.4628],[-75.21897,43.47954],[-75.15306,43.49541],[-75.08676,43.51041],[-75.02007,43.52452],[-74.95302,43.53774],[-74.88565,43.55008],[-74.81795,43.56151],[-74.74998,43.57205],[-74.68173,43.58168],[-74.61325,43.59041],[-74.54455,43.59822],[-74.47565,43.60513],[-74.40659,43.61111],[-74.33738,43.61618],[-74.26805,43.62033],[-74.19862,43.62356],[-74.12912,43.62587],[-74.05957,43.62725],[-73.99,43.62771],[-73.92043,43.62725],[-73.85088,43.62587],[-73.78138,43.62356],[-73.71195,43.62033],[-73.64262,43.61618],[-73.57341,43.61111],[-73.50435,43.60513],[-73.43545,43.59822],[-73.36675,43.59041],[-73.29827,43.58168],[-73.23002,43.57205],[-73.16205,43.56151],[-73.09435,43.55008],[-73.02698,43.53774],[-72.95993,43.52452],[-72.89324,43.51041],[-72.82694,43.49541],[-72.76103,43.47954],[-72.69556,43.4628],[-72.63053,43.44519],[-72.56597,43.42672],[-72.5019,43.4074],[-72.43834,43.38723],[-72.37532,43.36622],[-72.31286,43.34438],[-72.25097,43.32172],[-72.18969,43.29824],[-72.12901,43.27394],[-72.06898,43.24885],[-72.00961,43.22297],[-71.95091,43.1963],[-71.8929,43.16886],[-71.83562,43.14065],[-71.77906,43.11169],[-71.72326,43.08198],[-71.66823,43.05154],[-71.61398,43.02038],[-71.56054,42.9885],[-71.50792,42.95591],[-71.45613,42.92264],[-71.4052,42.88868],[-71.35514,42.85405],[-71.30596,42.81877],[-71.25768,42.78284],[-71.21032,42.74627],[-71.16388,42.70908],[-71.11838,42.67128],[-71.07384,42.63289],[-71.03027,42.59391],[-70.98768,42.55436],[-70.94608,42.51425],[-70.90548,42.4736],[-70.8659,42.43241],[-70.82735,42.39071],[-70.78983,42.3485],[-70.75336,42.30581],[-70.71795,42.26263],[-70.6836,42.21899],[-70.65033,42.17491],[-70.61815,42.13039],[-70.58705,42.08545],[-70.55706,42.04011],[-70.52817,41.99437],[-70.5004,41.94826],[-70.47375,41.90179],[-70.44822,41.85497],[-70.42382,41.80782],[-70.40057,41.76036],[-70.37845,41.71259],[-70.35748,41.66454],[-70.33766,41.61622],[-70.319,41.56764],[-70.30149,41.51882],[-70.28515,41.46978],[-70.26996,41.42053],[-70.25594,41.37109],[-70.24309,41.32146],[-70.23141,41.27168],[-70.22089,41.22174],[-70.21155,41.17168],[-70.20337,41.12149],[-70.19637,41.07121],[-70.19053,41.02084],[-70.18586,40.9704],[-70.18236,40.91991],[-70.18002,40.86937],[-70.17884,40.81882],[-70.17883,40.76825],[-70.17998,40.7177],[-70.18228,40.66716]]}}]}